FENGYUN 1C DEB          
1 33630U 99025DDP 26065.51075021  .00001403  00000+0  64646-3 0  9996
2 33630  98.6140 174.2401 0134806 186.2590 173.6907 14.17888837655988
FENGYUN 1C DEB          
1 33633U 99025DDS 26062.74082457  .00005006  00000+0  22946-2 0  9991
2 33633  99.0522 163.8527 0080655 277.1728 238.6872 14.20084315918605
FENGYUN 1C DEB          
1 33637U 99025DDW 26047.90412177  .00003798  00000+0  12412-2 0  9995
2 33637  98.4871  97.0079 0080223 313.9623  45.4965 14.37307618657882
FENGYUN 1C DEB          
1 33638U 99025DDX 26063.49015448  .00001870  00000+0  17044-2 0  9993
2 33638  98.4619 309.4044 0266126  54.3662 308.1961 13.69519994620344
FENGYUN 1C DEB          
1 33639U 99025DDY 26046.04056116  .00004961  00000+0  15150-2 0  9993
2 33639  98.7049 143.2197 0049946 100.9503 259.7310 14.41604617615081
FENGYUN 1C DEB          
1 33640U 99025DDZ 26064.80484736  .00003122  00000+0  84208-3 0  9991
2 33640  98.8513  16.1251 0088795 271.9156  87.1867 14.46358896935431
FENGYUN 1C DEB          
1 33648U 99025DEH 26064.21469770  .00000307  00000+0  18780-3 0  9999
2 33648  98.7245  65.6202 0067764 301.1814  58.2726 14.11824529655407
FENGYUN 1C DEB          
1 33650U 99025DEK 26063.43249416  .00002841  00000+0  21549-2 0  9999
2 33650  98.9914 230.7009 0150881 216.0754 143.0150 13.89444259699432
FENGYUN 1C DEB          
1 33651U 99025DEL 26062.93183480  .00000413  00000+0  19849-3 0  9996
2 33651  98.6433 111.7703 0117175 178.6395 181.5123 14.20426011654247
FENGYUN 1C DEB          
1 33655U 99025DEQ 26064.68334110  .00035242  00000+0  25764-2 0  9992
2 33655  98.8025 145.7417 0041717  90.8115 269.7887 15.02826197978012
FENGYUN 1C DEB          
1 33656U 99025DER 26060.22745515  .00000785  00000+0  35280-3 0  9993
2 33656  98.5848  56.2833 0090127 162.0949 198.3440 14.22911389638257
FENGYUN 1C DEB          
1 33658U 99025DET 26065.66088650  .00002465  00000+0  24835-2 0  9998
2 33658  99.5639 222.3893 0277255 326.0909  32.2775 13.62793290592828
FENGYUN 1C DEB          
1 33660U 99025DEV 26064.22880115  .00000656  00000+0  51947-3 0  9993
2 33660  98.6554 334.9599 0111144  19.4317 131.4532 13.91872117922110
FENGYUN 1C DEB          
1 33663U 99025DEY 26063.47654984  .00056260  00000+0  93732-2 0  9994
2 33663  98.8891  66.2119 0074470 119.3213 241.5456 14.67896512653991
FENGYUN 1C DEB          
1 33664U 99025DEZ 26062.34818506  .00001371  00000+0  79059-3 0  9992
2 33664  98.7099 212.7758 0164126 173.3174 187.0237 14.04112315918709
