[{"OBJECT_NAME":"FENGYUN 1C DEB","OBJECT_ID":"1999-025DDP","EPOCH":"2026-03-06T12:15:28.818144","MEAN_MOTION":14.17888837,"ECCENTRICITY":0.01348069,"INCLINATION":98.614,"RA_OF_ASC_NODE":174.2401,"ARG_OF_PERICENTER":186.259,"MEAN_ANOMALY":173.6907,"EPHEMERIS_TYPE":0,"CLASSIFICATION_TYPE":"U","NORAD_CAT_ID":33630,"ELEMENT_SET_NO":999,"REV_AT_EPOCH":65598,"BSTAR":0.00064645978,"MEAN_MOTION_DOT":1.403e-5,"MEAN_MOTION_DDOT":0},{"OBJECT_NAME":"FENGYUN 1C DEB","OBJECT_ID":"1999-025DDS","EPOCH":"2026-03-03T17:46:47.242848","MEAN_MOTION":14.20084315,"ECCENTRICITY":0.00806553,"INCLINATION":99.0522,"RA_OF_ASC_NODE":163.8527,"ARG_OF_PERICENTER":277.1728,"MEAN_ANOMALY":238.6872,"EPHEMERIS_TYPE":0,"CLASSIFICATION_TYPE":"U","NORAD_CAT_ID":33633,"ELEMENT_SET_NO":999,"REV_AT_EPOCH":91860,"BSTAR":0.0022946119,"MEAN_MOTION_DOT":5.006e-5,"MEAN_MOTION_DDOT":0},{"OBJECT_NAME":"FENGYUN 1C DEB","OBJECT_ID":"1999-025DDW","EPOCH":"2026-02-16T21:41:56.120928","MEAN_MOTION":14.37307618,"ECCENTRICITY":0.00802235,"INCLINATION":98.4871,"RA_OF_ASC_NODE":97.0079,"ARG_OF_PERICENTER":313.9623,"MEAN_ANOMALY":45.4965,"EPHEMERIS_TYPE":0,"CLASSIFICATION_TYPE":"U","NORAD_CAT_ID":33637,"ELEMENT_SET_NO":999,"REV_AT_EPOCH":65788,"BSTAR":0.0012411881,"MEAN_MOTION_DOT":3.798e-5,"MEAN_MOTION_DDOT":0},{"OBJECT_NAME":"FENGYUN 1C DEB","OBJECT_ID":"1999-025DDX","EPOCH":"2026-03-04T11:45:49.347072","MEAN_MOTION":13.69519994,"ECCENTRICITY":0.02661261,"INCLINATION":98.4619,"RA_OF_ASC_NODE":309.4044,"ARG_OF_PERICENTER":54.3662,"MEAN_ANOMALY":308.1961,"EPHEMERIS_TYPE":0,"CLASSIFICATION_TYPE":"U","NORAD_CAT_ID":33638,"ELEMENT_SET_NO":999,"REV_AT_EPOCH":62034,"BSTAR":0.0017044205,"MEAN_MOTION_DOT":1.87e-5,"MEAN_MOTION_DDOT":0},{"OBJECT_NAME":"FENGYUN 1C DEB","OBJECT_ID":"1999-025DDY","EPOCH":"2026-02-15T00:58:24.484224","MEAN_MOTION":14.41604617,"ECCENTRICITY":0.00499463,"INCLINATION":98.7049,"RA_OF_ASC_NODE":143.2197,"ARG_OF_PERICENTER":100.9503,"MEAN_ANOMALY":259.731,"EPHEMERIS_TYPE":0,"CLASSIFICATION_TYPE":"U","NORAD_CAT_ID":33639,"ELEMENT_SET_NO":999,"REV_AT_EPOCH":61508,"BSTAR":0.0015149751,"MEAN_MOTION_DOT":4.961e-5,"MEAN_MOTION_DDOT":0},{"OBJECT_NAME":"FENGYUN 1C DEB","OBJECT_ID":"1999-025DDZ","EPOCH":"2026-03-05T19:18:58.811904","MEAN_MOTION":14.46358896,"ECCENTRICITY":0.00887953,"INCLINATION":98.8513,"RA_OF_ASC_NODE":16.1251,"ARG_OF_PERICENTER":271.9156,"MEAN_ANOMALY":87.1867,"EPHEMERIS_TYPE":0,"CLASSIFICATION_TYPE":"U","NORAD_CAT_ID":33640,"ELEMENT_SET_NO":999,"REV_AT_EPOCH":93543,"BSTAR":0.00084207978,"MEAN_MOTION_DOT":3.122e-5,"MEAN_MOTION_DDOT":0},{"OBJECT_NAME":"FENGYUN 1C DEB","OBJECT_ID":"1999-025DEH","EPOCH":"2026-03-05T05:09:09.881280","MEAN_MOTION":14.11824529,"ECCENTRICITY":0.0067764,"INCLINATION":98.7245,"RA_OF_ASC_NODE":65.6202,"ARG_OF_PERICENTER":301.1814,"MEAN_ANOMALY":58.2726,"EPHEMERIS_TYPE":0,"CLASSIFICATION_TYPE":"U","NORAD_CAT_ID":33648,"ELEMENT_SET_NO":999,"REV_AT_EPOCH":65540,"BSTAR":0.0001878,"MEAN_MOTION_DOT":3.07e-6,"MEAN_MOTION_DDOT":0},{"OBJECT_NAME":"FENGYUN 1C DEB","OBJECT_ID":"1999-025DEK","EPOCH":"2026-03-04T10:22:47.495424","MEAN_MOTION":13.89444259,"ECCENTRICITY":0.01508817,"INCLINATION":98.9914,"RA_OF_ASC_NODE":230.7009,"ARG_OF_PERICENTER":216.0754,"MEAN_ANOMALY":143.015,"EPHEMERIS_TYPE":0,"CLASSIFICATION_TYPE":"U","NORAD_CAT_ID":33650,"ELEMENT_SET_NO":999,"REV_AT_EPOCH":69943,"BSTAR":0.0021549373,"MEAN_MOTION_DOT":2.841e-5,"MEAN_MOTION_DDOT":0},{"OBJECT_NAME":"FENGYUN 1C DEB","OBJECT_ID":"1999-025DEL","EPOCH":"2026-03-03T22:21:50.526720","MEAN_MOTION":14.20426011,"ECCENTRICITY":0.0117175,"INCLINATION":98.6433,"RA_OF_ASC_NODE":111.7703,"ARG_OF_PERICENTER":178.6395,"MEAN_ANOMALY":181.5123,"EPHEMERIS_TYPE":0,"CLASSIFICATION_TYPE":"U","NORAD_CAT_ID":33651,"ELEMENT_SET_NO":999,"REV_AT_EPOCH":65424,"BSTAR":0.00019849,"MEAN_MOTION_DOT":4.13e-6,"MEAN_MOTION_DDOT":0},{"OBJECT_NAME":"FENGYUN 1C DEB","OBJECT_ID":"1999-025DEQ","EPOCH":"2026-03-05T16:24:00.671040","MEAN_MOTION":15.02826197,"ECCENTRICITY":0.00417177,"INCLINATION":98.8025,"RA_OF_ASC_NODE":145.7417,"ARG_OF_PERICENTER":90.8115,"MEAN_ANOMALY":269.7887,"EPHEMERIS_TYPE":0,"CLASSIFICATION_TYPE":"U","NORAD_CAT_ID":33655,"ELEMENT_SET_NO":999,"REV_AT_EPOCH":97801,"BSTAR":0.0025763853,"MEAN_MOTION_DOT":0.00035242,"MEAN_MOTION_DDOT":0},{"OBJECT_NAME":"FENGYUN 1C DEB","OBJECT_ID":"1999-025DER","EPOCH":"2026-03-01T05:27:32.124960","MEAN_MOTION":14.22911389,"ECCENTRICITY":0.0090127,"INCLINATION":98.5848,"RA_OF_ASC_NODE":56.2833,"ARG_OF_PERICENTER":162.0949,"MEAN_ANOMALY":198.344,"EPHEMERIS_TYPE":0,"CLASSIFICATION_TYPE":"U","NORAD_CAT_ID":33656,"ELEMENT_SET_NO":999,"REV_AT_EPOCH":63825,"BSTAR":0.0003528,"MEAN_MOTION_DOT":7.85e-6,"MEAN_MOTION_DDOT":0},{"OBJECT_NAME":"FENGYUN 1C DEB","OBJECT_ID":"1999-025DET","EPOCH":"2026-03-06T15:51:40.593600","MEAN_MOTION":13.6279329,"ECCENTRICITY":0.02772551,"INCLINATION":99.5639,"RA_OF_ASC_NODE":222.3893,"ARG_OF_PERICENTER":326.0909,"MEAN_ANOMALY":32.2775,"EPHEMERIS_TYPE":0,"CLASSIFICATION_TYPE":"U","NORAD_CAT_ID":33658,"ELEMENT_SET_NO":999,"REV_AT_EPOCH":59282,"BSTAR":0.0024834526,"MEAN_MOTION_DOT":2.465e-5,"MEAN_MOTION_DDOT":0},{"OBJECT_NAME":"FENGYUN 1C DEB","OBJECT_ID":"1999-025DEV","EPOCH":"2026-03-05T05:29:28.419360","MEAN_MOTION":13.91872117,"ECCENTRICITY":0.0111144,"INCLINATION":98.6554,"RA_OF_ASC_NODE":334.9599,"ARG_OF_PERICENTER":19.4317,"MEAN_ANOMALY":131.4532,"EPHEMERIS_TYPE":0,"CLASSIFICATION_TYPE":"U","NORAD_CAT_ID":33660,"ELEMENT_SET_NO":999,"REV_AT_EPOCH":92211,"BSTAR":0.00051947,"MEAN_MOTION_DOT":6.56e-6,"MEAN_MOTION_DDOT":0},{"OBJECT_NAME":"FENGYUN 1C DEB","OBJECT_ID":"1999-025DEY","EPOCH":"2026-03-04T11:26:13.906176","MEAN_MOTION":14.67896512,"ECCENTRICITY":0.00744706,"INCLINATION":98.8891,"RA_OF_ASC_NODE":66.2119,"ARG_OF_PERICENTER":119.3213,"MEAN_ANOMALY":241.5456,"EPHEMERIS_TYPE":0,"CLASSIFICATION_TYPE":"U","NORAD_CAT_ID":33663,"ELEMENT_SET_NO":999,"REV_AT_EPOCH":65399,"BSTAR":0.0093731951,"MEAN_MOTION_DOT":0.0005626,"MEAN_MOTION_DDOT":0},{"OBJECT_NAME":"FENGYUN 1C DEB","OBJECT_ID":"1999-025DEZ","EPOCH":"2026-03-03T08:21:23.189184","MEAN_MOTION":14.04112315,"ECCENTRICITY":0.01641268,"INCLINATION":98.7099,"RA_OF_ASC_NODE":212.7758,"ARG_OF_PERICENTER":173.3174,"MEAN_ANOMALY":187.0237,"EPHEMERIS_TYPE":0,"CLASSIFICATION_TYPE":"U","NORAD_CAT_ID":33664,"ELEMENT_SET_NO":999,"REV_AT_EPOCH":91870,"BSTAR":0.00079059225,"MEAN_MOTION_DOT":1.371e-5,"MEAN_MOTION_DDOT":0}]
